NORAD_CAT_ID,OBJECT_NAME,OBJECT_TYPE,EPOCH,MEAN_MOTION,ECCENTRICITY,INCLINATION,RA_OF_ASC_NODE,ARG_OF_PERICENTER,MEAN_ANOMALY,BSTAR,MEAN_MOTION_DOT,MEAN_MOTION_DDOT,TLE_LINE0,TLE_LINE1,TLE_LINE2,SEMIMAJOR_AXIS,PERIOD,APOGEE,PERIGEE,DECAYED
54758.0,STARLINK-5464,PAYLOAD,2023-10-18 11:51:15,15.08851172,0.0001557,53.2181,359.2425,75.9192,284.1973,0.00094624,0.00014808,0.0,0 STARLINK-5464,1 54758U 22175A   23291.49392456  .00014808  00000-0  94624-3 0  9994,2 54758  53.2181 359.2425 0001557  75.9192 284.1973 15.08851172 44721,6917.846,95.437,540.788,538.634,0.0
54758.0,STARLINK-5464,PAYLOAD,2023-10-18 21:23:33,15.08848293,0.0001578,53.2172,357.4552,69.4786,290.6375,0.0006531,0.00010124,0.0,0 STARLINK-5464,1 54758U 22175A   23291.89136348  .00010124  00000-0  65310-3 0  9991,2 54758  53.2172 357.4552 0001578  69.4786 290.6375 15.08848293 48229,6917.855,95.437,540.812,538.628,0.0
54758.0,STARLINK-5464,PAYLOAD,2023-10-19 13:17:24,15.08857169,0.0001715,53.2171,354.4849,83.3083,276.8104,0.00073532,0.00011439,0.0,0 STARLINK-5464,1 54758U 22175A   23292.55376054  .00011439  00000-0  73532-3 0  9990,2 54758  53.2171 354.4849 0001715  83.3083 276.8104 15.08857169 48321,6917.828,95.436,540.879,538.507,0.0
54758.0,STARLINK-5464,PAYLOAD,2023-10-19 21:14:20,15.0884831,0.0001814,53.2178,352.9973,75.7523,284.3671,0.00039481,6.002e-05,0.0,0 STARLINK-5464,1 54758U 22175A   23292.88496212  .00006002  00000-0  39481-3 0  9990,2 54758  53.2178 352.9973 0001814  75.7523 284.3671 15.08848310 48379,6917.855,95.437,540.975,538.465,0.0
54758.0,STARLINK-5464,PAYLOAD,2023-10-20 11:32:49,15.08834128,0.000165,53.2177,350.3216,77.9575,282.1602,-6.406e-05,-1.307e-05,0.0,0 STARLINK-5464,1 54758U 22175A   23293.48112831 -.00001307  00000-0 -64060-4 0  9996,2 54758  53.2177 350.3216 0001650  77.9575 282.1602 15.08834128 45020,6917.898,95.438,540.905,538.622,0.0
54758.0,STARLINK-5464,PAYLOAD,2023-10-20 13:08:12,15.08836558,0.0001711,53.2174,350.0239,77.4204,282.6979,-1.5001e-07,-2.9e-06,0.0,0 STARLINK-5464,1 54758U 22175A   23293.54736795 -.00000290  00000-0 -15001-6 0  9997,2 54758  53.2174 350.0239 0001711  77.4204 282.6979 15.08836558 48474,6917.891,95.438,540.94,538.572,0.0
54758.0,STARLINK-5464,PAYLOAD,2023-10-21 11:23:36,15.08847458,0.0001592,53.2172,345.8605,90.8424,269.2751,0.00037297,5.654e-05,0.0,0 STARLINK-5464,1 54758U 22175A   23294.47472720  .00005654  00000-0  37297-3 0  9990,2 54758  53.2172 345.8605 0001592  90.8424 269.2751 15.08847458 45175,6917.858,95.437,540.824,538.621,0.0
54758.0,STARLINK-5464,PAYLOAD,2023-10-21 20:55:55,15.08844814,0.0001634,53.2171,344.0772,87.941,272.1769,0.00027998,4.171e-05,0.0,0 STARLINK-5464,1 54758U 22175A   23294.87216893  .00004171  00000-0  27998-3 0  9991,2 54758  53.2171 344.0772 0001634  87.9410 272.1769 15.08844814 48672,6917.866,95.437,540.861,538.6,0.0
54758.0,STARLINK-5464,PAYLOAD,2023-10-22 09:39:00,15.08839598,0.00016,53.2185,341.6973,92.1731,267.9445,0.00016539,2.345e-05,0.0,0 STARLINK-5464,1 54758U 22175A   23295.40209054  .00002345  00000-0  16539-3 0  9992,2 54758  53.2185 341.6973 0001600  92.1731 267.9445 15.08839598 45314,6917.882,95.438,540.853,538.64,0.0
54758.0,STARLINK-5464,PAYLOAD,2023-10-22 20:46:42,15.08836441,0.0001611,53.2184,339.6166,93.1105,267.0071,5.4215e-05,5.75e-06,0.0,0 STARLINK-5464,1 54758U 22175A   23295.86577256  .00000575  00000-0  54215-4 0  9991,2 54758  53.2184 339.6166 0001611  93.1105 267.0071 15.08836441 48821,6917.891,95.438,540.871,538.642,0.0
54758.0,STARLINK-5464,PAYLOAD,2023-10-23 09:29:47,15.08837624,0.0001536,53.2178,337.2379,94.5817,265.535,-9.6711e-06,-4.42e-06,0.0,0 STARLINK-5464,1 54758U 22175A   23296.39569375 -.00000442  00000-0 -96711-5 0  9996,2 54758  53.2178 337.2379 0001536  94.5817 265.5350 15.08837624 45469,6917.888,95.438,540.815,538.69,0.0
54758.0,STARLINK-5464,PAYLOAD,2023-10-24 09:20:34,15.08846513,0.0001388,53.2183,332.7799,89.3111,270.804,4.1513e-05,3.73e-06,0.0,0 STARLINK-5464,1 54758U 22175A   23297.38929250  .00000373  00000-0  41513-4 0  9998,2 54758  53.2183 332.7799 0001388  89.3111 270.8040 15.08846513 49056,6917.86,95.437,540.686,538.765,0.0
54758.0,STARLINK-5464,PAYLOAD,2023-10-25 07:35:58,15.08842961,0.0001344,53.2178,328.616,91.2242,268.8904,0.0002067,3.004e-05,0.0,0 STARLINK-5464,1 54758U 22175A   23298.31665317  .00003004  00000-0  20670-3 0  9997,2 54758  53.2178 328.6160 0001344  91.2242 268.8904 15.08842961 45757,6917.871,95.437,540.666,538.807,0.0
54758.0,STARLINK-5464,PAYLOAD,2023-10-26 10:37:32,15.08838194,0.0001547,53.2181,323.5603,92.3747,267.7422,3.7305e-05,3.06e-06,0.0,0 STARLINK-5464,1 54758U 22175A   23299.44273977  .00000306  00000-0  37305-4 0  9995,2 54758  53.2181 323.5603 0001547  92.3747 267.7422 15.08838194 45929,6917.886,95.438,540.821,538.681,0.0
54758.0,STARLINK-5464,PAYLOAD,2023-10-26 18:34:28,15.08842521,0.0001556,53.2182,322.0737,91.8791,268.2379,4.9057e-05,4.93e-06,0.0,0 STARLINK-5464,1 54758U 22175A   23299.77393630  .00000493  00000-0  49057-4 0  9994,2 54758  53.2182 322.0737 0001556  91.8791 268.2379 15.08842521 49419,6917.873,95.437,540.814,538.661,0.0
54758.0,STARLINK-5464,PAYLOAD,2023-10-27 00:56:00,15.08850073,0.0001985,53.2184,320.8854,90.5437,269.5783,-3.6651e-05,-8.72e-06,0.0,0 STARLINK-5464,1 54758U 22175A   23300.03889496 -.00000872  00000-0 -36651-4 0  9995,2 54758  53.2184 320.8854 0001985  90.5437 269.5783 15.08850073 46013,6917.85,95.437,541.088,538.341,0.0
54758.0,STARLINK-5464,PAYLOAD,2023-10-27 07:17:32,15.08847167,0.0001462,53.2185,319.6955,83.9859,276.13,0.00010133,1.325e-05,0.0,0 STARLINK-5464,1 54758U 22175A   23300.30385246  .00001325  00000-0  10133-3 0  9997,2 54758  53.2185 319.6955 0001462  83.9859 276.1300 15.08847167 49490,6917.858,95.437,540.735,538.712,0.0
54758.0,STARLINK-5464,PAYLOAD,2023-10-27 18:25:14,15.08858251,0.0001741,53.2175,317.614,97.6133,262.5057,-0.00016413,-2.901e-05,0.0,0 STARLINK-5464,1 54758U 22175A   23300.76752797 -.00002901  00000-0 -16413-3 0  9996,2 54758  53.2175 317.6140 0001741  97.6133 262.5057 15.08858251 49562,6917.825,95.436,540.894,538.485,0.0
54758.0,STARLINK-5464,PAYLOAD,2023-10-28 10:19:06,15.08839594,0.0001865,53.2182,314.6396,93.1187,267.0019,5.7634e-05,6.29e-06,0.0,0 STARLINK-5464,1 54758U 22175A   23301.42994024  .00000629  00000-0  57634-4 0  9995,2 54758  53.2182 314.6396 0001865  93.1187 267.0019 15.08839594 46224,6917.882,95.438,541.037,538.456,0.0
54758.0,STARLINK-5464,PAYLOAD,2023-10-28 18:16:02,15.08837679,0.0001926,53.2186,313.1502,91.741,268.3803,3.4992e-05,2.69e-06,0.0,0 STARLINK-5464,1 54758U 22175A   23301.76114276  .00000269  00000-0  34992-4 0  9997,2 54758  53.2186 313.1502 0001926  91.7410 268.3803 15.08837679 49716,6917.887,95.438,541.085,538.42,0.0
54758.0,STARLINK-5464,PAYLOAD,2023-10-29 06:59:07,15.08850233,0.0001738,53.2171,310.7693,112.1496,247.968,2.6637e-05,1.36e-06,0.0,0 STARLINK-5464,1 54758U 22175A   23302.29105420  .00000136  00000-0  26637-4 0  9997,2 54758  53.2171 310.7693 0001738 112.1496 247.9680 15.08850233 49792,6917.849,95.437,540.916,538.512,0.0
54758.0,STARLINK-5464,PAYLOAD,2023-10-29 18:06:49,15.08838533,0.0001942,53.2193,308.6891,95.6171,264.5042,5.8182e-05,6.38e-06,0.0,0 STARLINK-5464,1 54758U 22175A   23302.75474227  .00000638  00000-0  58182-4 0  9999,2 54758  53.2193 308.6891 0001942  95.6171 264.5042 15.08838533 46427,6917.885,95.438,541.093,538.406,0.0
54758.0,STARLINK-5464,PAYLOAD,2023-10-30 17:57:36,15.08840149,0.0001742,53.2175,304.2296,97.0633,263.0558,8.8323e-05,1.118e-05,0.0,0 STARLINK-5464,1 54758U 22175A   23303.74834272  .00001118  00000-0  88323-4 0  9993,2 54758  53.2175 304.2296 0001742  97.0633 263.0558 15.08840149 50017,6917.88,95.438,540.95,538.54,0.0
54758.0,STARLINK-5464,PAYLOAD,2023-10-31 05:05:18,15.08839649,0.0001781,53.2177,302.1482,98.3036,261.8158,9.0486e-05,1.152e-05,0.0,0 STARLINK-5464,1 54758U 22175A   23304.21202440  .00001152  00000-0  90486-4 0  9993,2 54758  53.2177 302.1482 0001781  98.3036 261.8158 15.08839649 46646,6917.881,95.438,540.979,538.514,0.0
54758.0,STARLINK-5464,PAYLOAD,2023-10-31 06:40:41,15.08841321,0.0001784,53.2179,301.8507,98.7619,261.3576,0.00012417,1.689e-05,0.0,0 STARLINK-5464,1 54758U 22175A   23304.27826265  .00001689  00000-0  12417-3 0  9998,2 54758  53.2179 301.8507 0001784  98.7619 261.3576 15.08841321 50099,6917.876,95.437,540.976,538.507,0.0
54758.0,STARLINK-5464,PAYLOAD,2023-11-01 06:31:28,15.08843477,0.0001619,53.217,297.3902,93.3892,266.7285,0.00010401,1.368e-05,0.0,0 STARLINK-5464,1 54758U 22175A   23305.27186315  .00001368  00000-0  10401-3 0  9999,2 54758  53.2170 297.3902 0001619  93.3892 266.7285 15.08843477 46803,6917.87,95.437,540.855,538.615,0.0
54758.0,STARLINK-5464,PAYLOAD,2023-11-01 16:03:47,15.08841968,0.0001622,53.2171,295.6061,92.9518,267.166,8.6526e-05,1.089e-05,0.0,0 STARLINK-5464,1 54758U 22175A   23305.66930398  .00001089  00000-0  86526-4 0  9992,2 54758  53.2171 295.6061 0001622  92.9518 267.1660 15.08841968 50300,6917.874,95.437,540.861,538.617,0.0
54758.0,STARLINK-5464,PAYLOAD,2023-11-02 06:22:15,15.08861291,0.000247,53.2192,292.9338,90.2095,269.918,-0.00021164,-3.657e-05,0.0,0 STARLINK-5464,1 54758U 22175A   23306.26545791 -.00003657  00000-0 -21164-3 0  9999,2 54758  53.2192 292.9338 0002470  90.2095 269.9180 15.08861291 50390,6917.815,95.436,541.389,537.972,0.0
54758.0,STARLINK-5464,PAYLOAD,2023-11-02 15:54:35,15.08844417,0.0001743,53.2184,291.1492,95.3021,264.817,-5.2272e-05,-1.12e-05,0.0,0 STARLINK-5464,1 54758U 22175A   23306.66290611 -.00001120  00000-0 -52272-4 0  9999,2 54758  53.2184 291.1492 0001743  95.3021 264.8170 15.08844417 47019,6917.867,95.437,540.938,538.526,0.0
54758.0,STARLINK-5464,PAYLOAD,2023-11-03 04:37:41,15.08828077,0.0001644,53.2185,288.7703,94.7609,265.3571,-3.7945e-05,-8.92e-06,0.0,0 STARLINK-5464,1 54758U 22175A   23307.19283985 -.00000892  00000-0 -37945-4 0  9999,2 54758  53.2185 288.7703 0001644  94.7609 265.3571 15.08828077 47095,6917.917,95.438,540.919,538.645,0.0
